{"fetched_at":"2026-03-29T16:36:15Z","count":15609,"tles":[{"name":"STARLINK-35249","line1":"1 65901U 25224V   26087.83568523  .00021600  00000+0  73839-3 0  9990","line2":"2 65901  53.1588 282.5507 0000990  96.6756 263.4357 15.30239122 27781","category":"Starlink"}]}