{
  "norad_id": 65901,
  "name": "STARLINK-35249",
  "history": [
    {
      "epoch": "2026-03-28T20:03:23.203872Z",
      "apogee_km": 475.77673095858154,
      "perigee_km": 474.4197903769691,
      "latitude_deg": -3.370542140933273e-05,
      "longitude_deg": 155.45356723681547,
      "height_km": 476.0754834385645,
      "semi_major_axis_km": 6853.235260667775,
      "eccentricity": 9.9e-05,
      "inclination_deg": 53.1588,
      "raan_deg": 282.5507,
      "arg_perigee_deg": 96.6756,
      "mean_anomaly_deg": 263.4357,
      "mean_motion_rev_day": 15.30239122
    }
  ]
}